start=new Date('2022-07-24T00:00:00.000Z').valueOf();
sats=[{"LAUNCH_DATE":"2020-06-04","OBJECT_TYPE":"PAYLOAD","ELEMENT_SET_NO":"999","CLASSIFICATION_TYPE":"U","DECAY_DATE":null,"OBJECT_NAME":"STARLINK-1446","RCS_SIZE":"LARGE","NORAD_CAT_ID":"45663","ARG_OF_PERICENTER":"63.0200","INCLINATION":"53.0524","OBJECT_ID":"2020-035G","SEMIMAJOR_AXIS":"6925.360","GP_ID":"208734869","COUNTRY_CODE":"US","MEAN_MOTION_DOT":"0.00000055","ECCENTRICITY":"0.00015120","PERIOD":"95.592","MEAN_ELEMENT_THEORY":"SGP4","TLE_LINE2":"2 45663  53.0524 254.0665 0001512  63.0200 297.0943 15.06396283119045","TLE_LINE1":"1 45663U 20035G   22204.84567963  .00000055  00000-0  22578-4 0  9990","RA_OF_ASC_NODE":"254.0665","MEAN_ANOMALY":"297.0943","CENTER_NAME":"EARTH","MEAN_MOTION_DDOT":"0.0000000000000","PERIAPSIS":"546.178","EPHEMERIS_TYPE":"0","REF_FRAME":"TEME","FILE":"3520602","APOAPSIS":"548.272","SITE":"AFETR","REV_AT_EPOCH":"11904","EPOCH":"2022-07-23T20:17:46.720032","BSTAR":"0.00002257800000","TIME_SYSTEM":"UTC","MEAN_MOTION":"15.06396283"},{"ARG_OF_PERICENTER":"71.3253","NORAD_CAT_ID":"45665","RCS_SIZE":"LARGE","OBJECT_ID":"2020-035J","INCLINATION":"53.0555","SEMIMAJOR_AXIS":"6925.365","COUNTRY_CODE":"US","GP_ID":"208682577","LAUNCH_DATE":"2020-06-04","ELEMENT_SET_NO":"999","OBJECT_TYPE":"PAYLOAD","CLASSIFICATION_TYPE":"U","DECAY_DATE":null,"OBJECT_NAME":"STARLINK-1448","REF_FRAME":"TEME","FILE":"3520324","APOAPSIS":"548.291","SITE":"AFETR","REV_AT_EPOCH":"11859","EPOCH":"2022-07-23T13:07:50.224512","BSTAR":"0.00020857000000","TIME_SYSTEM":"UTC","MEAN_MOTION":"15.06394758","ECCENTRICITY":"0.00015330","MEAN_MOTION_DOT":"0.00002826","TLE_LINE2":"2 45665  53.0555 255.4131 0001533  71.3253 288.7902 15.06394758118593","PERIOD":"95.592","MEAN_ELEMENT_THEORY":"SGP4","MEAN_ANOMALY":"288.7902","TLE_LINE1":"1 45665U 20035J   22204.54710908  .00002826  00000-0  20857-3 0  9993","RA_OF_ASC_NODE":"255.4131","PERIAPSIS":"546.168","MEAN_MOTION_DDOT":"0.0000000000000","CENTER_NAME":"EARTH","EPHEMERIS_TYPE":"0"},{"CLASSIFICATION_TYPE":"U","DECAY_DATE":null,"OBJECT_NAME":"STARLINK-1449","LAUNCH_DATE":"2020-06-04","OBJECT_TYPE":"PAYLOAD","ELEMENT_SET_NO":"999","SEMIMAJOR_AXIS":"6925.357","GP_ID":"208705310","COUNTRY_CODE":"US","RCS_SIZE":"LARGE","NORAD_CAT_ID":"45666","ARG_OF_PERICENTER":"73.8630","INCLINATION":"53.0547","OBJECT_ID":"2020-035K","PERIOD":"95.592","MEAN_ELEMENT_THEORY":"SGP4","TLE_LINE2":"2 45666  53.0547 255.9733 0001510  73.8630 286.2525 15.06397178118974","TLE_LINE1":"1 45666U 20035K   22204.41810045  .00001664  00000-0  13059-3 0  9998","RA_OF_ASC_NODE":"255.9733","MEAN_ANOMALY":"286.2525","CENTER_NAME":"EARTH","PERIAPSIS":"546.176","MEAN_MOTION_DDOT":"0.0000000000000","EPHEMERIS_TYPE":"0","MEAN_MOTION_DOT":"0.00001664","ECCENTRICITY":"0.00015100","REV_AT_EPOCH":"11897","SITE":"AFETR","EPOCH":"2022-07-23T10:02:03.878880","TIME_SYSTEM":"UTC","BSTAR":"0.00013059000000","MEAN_MOTION":"15.06397178","REF_FRAME":"TEME","FILE":"3520423","APOAPSIS":"548.268"},{"OBJECT_ID":"2020-035L","INCLINATION":"53.0537","ARG_OF_PERICENTER":"78.8353","NORAD_CAT_ID":"45667","RCS_SIZE":"LARGE","COUNTRY_CODE":"US","GP_ID":"208734120","SEMIMAJOR_AXIS":"6925.352","ELEMENT_SET_NO":"999","OBJECT_TYPE":"PAYLOAD","LAUNCH_DATE":"2020-06-04","OBJECT_NAME":"STARLINK-1450","DECAY_DATE":null,"CLASSIFICATION_TYPE":"U","APOAPSIS":"548.097","FILE":"3520602","REF_FRAME":"TEME","MEAN_MOTION":"15.06398840","BSTAR":"0.00012099000000","TIME_SYSTEM":"UTC","EPOCH":"2022-07-23T13:17:05.745408","SITE":"AFETR","REV_AT_EPOCH":"11899","ECCENTRICITY":"0.00012700","MEAN_MOTION_DOT":"0.00001521","EPHEMERIS_TYPE":"0","MEAN_MOTION_DDOT":"0.0000000000000","PERIAPSIS":"546.338","CENTER_NAME":"EARTH","MEAN_ANOMALY":"281.2779","TLE_LINE1":"1 45667U 20035L   22204.55353872  .00001521  00000-0  12099-3 0  9999","RA_OF_ASC_NODE":"255.4028","TLE_LINE2":"2 45667  53.0537 255.4028 0001270  78.8353 281.2779 15.06398840118991","MEAN_ELEMENT_THEORY":"SGP4","PERIOD":"95.592"},{"OBJECT_TYPE":"PAYLOAD","ELEMENT_SET_NO":"999","LAUNCH_DATE":"2020-06-04","CLASSIFICATION_TYPE":"U","OBJECT_NAME":"STARLINK-1451","DECAY_DATE":null,"NORAD_CAT_ID":"45668","RCS_SIZE":"LARGE","ARG_OF_PERICENTER":"61.2165","INCLINATION":"53.0546","OBJECT_ID":"2020-035M","GP_ID":"208734371","COUNTRY_CODE":"US","SEMIMAJOR_AXIS":"6925.373","MEAN_MOTION_DOT":"-0.00000402","ECCENTRICITY":"0.00016140","RA_OF_ASC_NODE":"254.0543","TLE_LINE1":"1 45668U 20035M   22204.85210533 -.00000402  00000-0 -80997-5 0  9992","MEAN_ANOMALY":"298.8986","MEAN_ELEMENT_THEORY":"SGP4","PERIOD":"95.593","TLE_LINE2":"2 45668  53.0546 254.0543 0001614  61.2165 298.8986 15.06392128119053","EPHEMERIS_TYPE":"0","CENTER_NAME":"EARTH","MEAN_MOTION_DDOT":"0.0000000000000","PERIAPSIS":"546.120","APOAPSIS":"548.355","FILE":"3520602","REF_FRAME":"TEME","EPOCH":"2022-07-23T20:27:01.900512","REV_AT_EPOCH":"11905","SITE":"AFETR","MEAN_MOTION":"15.06392128","BSTAR":"-0.00000809970000","TIME_SYSTEM":"UTC"},{"GP_ID":"208735120","COUNTRY_CODE":"US","SEMIMAJOR_AXIS":"6925.328","NORAD_CAT_ID":"45669","RCS_SIZE":"LARGE","ARG_OF_PERICENTER":"66.3789","INCLINATION":"53.0534","OBJECT_ID":"2020-035N","CLASSIFICATION_TYPE":"U","OBJECT_NAME":"STARLINK-1452","DECAY_DATE":null,"OBJECT_TYPE":"PAYLOAD","ELEMENT_SET_NO":"999","LAUNCH_DATE":"2020-06-04","EPOCH":"2022-07-23T20:01:51.700224","REV_AT_EPOCH":"11904","SITE":"AFETR","MEAN_MOTION":"15.06406718","BSTAR":"0.00033434000000","TIME_SYSTEM":"UTC","FILE":"3520602","APOAPSIS":"548.172","REF_FRAME":"TEME","TLE_LINE1":"1 45669U 20035N   22204.83462616  .00004703  00000-0  33434-3 0  9990","RA_OF_ASC_NODE":"254.1216","MEAN_ANOMALY":"293.7349","PERIOD":"95.592","MEAN_ELEMENT_THEORY":"SGP4","TLE_LINE2":"2 45669  53.0534 254.1216 0001414  66.3789 293.7349 15.06406718119042","EPHEMERIS_TYPE":"0","CENTER_NAME":"EARTH","PERIAPSIS":"546.214","MEAN_MOTION_DDOT":"0.0000000000000","MEAN_MOTION_DOT":"0.00004703","ECCENTRICITY":"0.00014140"},{"OBJECT_TYPE":"PAYLOAD","ELEMENT_SET_NO":"999","LAUNCH_DATE":"2020-06-04","OBJECT_NAME":"STARLINK-1453","DECAY_DATE":null,"CLASSIFICATION_TYPE":"U","INCLINATION":"53.0525","OBJECT_ID":"2020-035P","RCS_SIZE":"LARGE","NORAD_CAT_ID":"45670","ARG_OF_PERICENTER":"61.2164","GP_ID":"208733371","COUNTRY_CODE":"US","SEMIMAJOR_AXIS":"6925.361","MEAN_MOTION_DOT":"-0.00000311","ECCENTRICITY":"0.00017090","EPHEMERIS_TYPE":"0","CENTER_NAME":"EARTH","MEAN_MOTION_DDOT":"0.0000000000000","PERIAPSIS":"546.042","TLE_LINE1":"1 45670U 20035P   22204.82632675 -.00000311  00000-0 -19521-5 0  9991","RA_OF_ASC_NODE":"224.1739","MEAN_ANOMALY":"298.8996","PERIOD":"95.592","MEAN_ELEMENT_THEORY":"SGP4","TLE_LINE2":"2 45670  53.0525 224.1739 0001709  61.2164 298.8996 15.06396053119357","APOAPSIS":"548.409","FILE":"3520602","REF_FRAME":"TEME","MEAN_MOTION":"15.06396053","BSTAR":"-0.00000195210000","TIME_SYSTEM":"UTC","EPOCH":"2022-07-23T19:49:54.631200","SITE":"AFETR","REV_AT_EPOCH":"11935"},{"ECCENTRICITY":"0.00015160","MEAN_MOTION_DOT":"0.00005152","MEAN_ANOMALY":"297.5119","TLE_LINE1":"1 45671U 20035Q   22204.83832095  .00005152  00000-0  36462-3 0  9998","RA_OF_ASC_NODE":"254.1038","TLE_LINE2":"2 45671  53.0533 254.1038 0001516  62.6024 297.5119 15.06392035119032","MEAN_ELEMENT_THEORY":"SGP4","PERIOD":"95.593","EPHEMERIS_TYPE":"0","PERIAPSIS":"546.188","MEAN_MOTION_DDOT":"0.0000000000000","CENTER_NAME":"EARTH","APOAPSIS":"548.288","FILE":"3520602","REF_FRAME":"TEME","EPOCH":"2022-07-23T20:07:10.930080","REV_AT_EPOCH":"11903","SITE":"AFETR","MEAN_MOTION":"15.06392035","BSTAR":"0.00036462000000","TIME_SYSTEM":"UTC","ELEMENT_SET_NO":"999","OBJECT_TYPE":"PAYLOAD","LAUNCH_DATE":"2020-06-04","CLASSIFICATION_TYPE":"U","OBJECT_NAME":"STARLINK-1454","DECAY_DATE":null,"ARG_OF_PERICENTER":"62.6024","RCS_SIZE":"LARGE","NORAD_CAT_ID":"45671","OBJECT_ID":"2020-035Q","INCLINATION":"53.0533","COUNTRY_CODE":"US","GP_ID":"208733621","SEMIMAJOR_AXIS":"6925.373"},{"LAUNCH_DATE":"2020-06-04","ELEMENT_SET_NO":"999","OBJECT_TYPE":"PAYLOAD","CLASSIFICATION_TYPE":"U","DECAY_DATE":null,"OBJECT_NAME":"STARLINK-1455","ARG_OF_PERICENTER":"53.0145","RCS_SIZE":"LARGE","NORAD_CAT_ID":"45672","OBJECT_ID":"2020-035R","INCLINATION":"53.0538","SEMIMAJOR_AXIS":"6925.348","COUNTRY_CODE":"US","GP_ID":"208734870","ECCENTRICITY":"0.00016290","MEAN_MOTION_DOT":"0.00002562","TLE_LINE2":"2 45672  53.0538 224.3675 0001629  53.0145 307.0992 15.06400233119459","PERIOD":"95.592","MEAN_ELEMENT_THEORY":"SGP4","MEAN_ANOMALY":"307.0992","RA_OF_ASC_NODE":"224.3675","TLE_LINE1":"1 45672U 20035R   22204.78209416  .00002562  00000-0  19085-3 0  9992","PERIAPSIS":"546.085","MEAN_MOTION_DDOT":"0.0000000000000","CENTER_NAME":"EARTH","EPHEMERIS_TYPE":"0","REF_FRAME":"TEME","APOAPSIS":"548.341","FILE":"3520602","REV_AT_EPOCH":"11945","SITE":"AFETR","EPOCH":"2022-07-23T18:46:12.935424","TIME_SYSTEM":"UTC","BSTAR":"0.00019085000000","MEAN_MOTION":"15.06400233"},{"SEMIMAJOR_AXIS":"6925.353","GP_ID":"208734621","COUNTRY_CODE":"US","INCLINATION":"53.0539","OBJECT_ID":"2020-035S","RCS_SIZE":"LARGE","NORAD_CAT_ID":"45673","ARG_OF_PERICENTER":"72.8198","DECAY_DATE":null,"OBJECT_NAME":"STARLINK-1456","CLASSIFICATION_TYPE":"U","LAUNCH_DATE":"2020-06-04","OBJECT_TYPE":"PAYLOAD","ELEMENT_SET_NO":"999","BSTAR":"0.00038109000000","TIME_SYSTEM":"UTC","MEAN_MOTION":"15.06398656","REV_AT_EPOCH":"11905","SITE":"AFETR","EPOCH":"2022-07-23T20:28:24.921408","REF_FRAME":"TEME","APOAPSIS":"548.184","FILE":"3520602","CENTER_NAME":"EARTH","MEAN_MOTION_DDOT":"0.0000000000000","PERIAPSIS":"546.252","EPHEMERIS_TYPE":"0","MEAN_ELEMENT_THEORY":"SGP4","PERIOD":"95.592","TLE_LINE2":"2 45673  53.0539 254.0340 0001395  72.8198 287.2943 15.06398656119053","TLE_LINE1":"1 45673U 20035S   22204.85306622  .00005399  00000-0  38109-3 0  9997","RA_OF_ASC_NODE":"254.0340","MEAN_ANOMALY":"287.2943","MEAN_MOTION_DOT":"0.00005399","ECCENTRICITY":"0.00013950"}];
